ALOS-2                  
1 39766U 14029A   26075.82003650  .00001884  00000+0  25872-3 0  9998
2 39766  97.9191 174.3136 0001418  92.2531 267.8843 14.79534078637923
YAOGAN-29               
1 41038U 15069A   26075.87903270  .00000070  00000+0  15252-4 0  9998
2 41038  98.0139 104.3276 0001448  23.6654 336.4626 14.83002359556948
ASTRO-H (HITOMI)        
1 41337U 16012A   26075.83917895  .00002769  00000+0  16027-3 0  9990
2 41337  30.9999 310.4099 0009648  42.6083 317.5302 15.10054414553318
HXMT (HUIYAN)           
1 42758U 17034A   26075.82040439  .00004954  00000+0  25047-3 0  9993
2 42758  43.0159 337.0279 0033210 279.3097  80.3997 15.17569885483621
SAOCOM 1A               
1 43641U 18076A   26075.84911606  .00000225  00000+0  34783-4 0  9992
2 43641  97.8896 263.9207 0001429  84.3852 275.7524 14.82148298402423
H-2A R/B                
1 43682U 18084L   26075.87312860  .00016138  00000+0  38098-3 0  9998
2 43682  98.8725 294.7981 0024815   0.7070 359.4203 15.41667803406881
SAOCOM 1B               
1 46265U 20059A   26073.04490030  .00000161  00000+0  26755-4 0  9993
2 46265  97.8899 260.2532 0001383  84.3427 275.7944 14.82151938299390
CSS (TIANHE)            
1 48274U 21035A   26075.56184825  .00021647  00000+0  25302-3 0  9999
2 48274  41.4671 166.3358 0006265 313.8090  46.2230 15.61049688278681
COSMOS 2550             
1 48865U 21056A   26075.95094221 -.00000210  00000+0 -53918-6 0  9993
2 48865  67.1424  18.9169 0008244 269.0350  90.9860 15.33875817264578
CZ-2C R/B               
1 52794U 22058K   26075.84034234  .00029917  00000+0  42970-3 0  9994
2 52794  50.1879 281.4921 0041989 231.3079 128.4133 15.54765876211248
CZ-2C R/B               
1 54039U 22132E   26075.73805862  .00038086  00000+0  42388-3 0  9992
2 54039  97.2952  79.2720 0019979  69.2344 291.1053 15.62520644191475
GSLV R/B                
1 54149U 22138AN  26075.67367639  .00002365  00000+0  20291-3 0  9998
2 54149  87.3885 164.0252 0023699 123.4790 236.8712 14.96827402184970
