CCSDS_OMM_VERS = 2.0
CREATION_DATE  = 
ORIGINATOR     = 

OBJECT_NAME    = ALOS-2
OBJECT_ID      = 2014-029A
CENTER_NAME    = EARTH
REF_FRAME      = TEME
TIME_SYSTEM    = UTC
MEAN_ELEMENT_THEORY = SGP/SGP4

EPOCH          = 2026-03-16T19:40:51.153600
MEAN_MOTION    = 14.79534078
ECCENTRICITY   = .0001418
INCLINATION    = 97.9191
RA_OF_ASC_NODE = 174.3136
ARG_OF_PERICENTER = 92.2531
MEAN_ANOMALY   = 267.8843

EPHEMERIS_TYPE = 0
CLASSIFICATION_TYPE = U
NORAD_CAT_ID   = 39766
ELEMENT_SET_NO = 999
REV_AT_EPOCH   = 63792
BSTAR          = .25872E-3
MEAN_MOTION_DOT = .1884E-4
MEAN_MOTION_DDOT = 0

CCSDS_OMM_VERS = 2.0
CREATION_DATE  = 
ORIGINATOR     = 

OBJECT_NAME    = YAOGAN-29
OBJECT_ID      = 2015-069A
CENTER_NAME    = EARTH
REF_FRAME      = TEME
TIME_SYSTEM    = UTC
MEAN_ELEMENT_THEORY = SGP/SGP4

EPOCH          = 2026-03-16T21:05:48.425280
MEAN_MOTION    = 14.83002359
ECCENTRICITY   = .0001448
INCLINATION    = 98.0139
RA_OF_ASC_NODE = 104.3276
ARG_OF_PERICENTER = 23.6654
MEAN_ANOMALY   = 336.4626

EPHEMERIS_TYPE = 0
CLASSIFICATION_TYPE = U
NORAD_CAT_ID   = 41038
ELEMENT_SET_NO = 999
REV_AT_EPOCH   = 55694
BSTAR          = .15252E-4
MEAN_MOTION_DOT = .7E-6
MEAN_MOTION_DDOT = 0

CCSDS_OMM_VERS = 2.0
CREATION_DATE  = 
ORIGINATOR     = 

OBJECT_NAME    = ASTRO-H (HITOMI)
OBJECT_ID      = 2016-012A
CENTER_NAME    = EARTH
REF_FRAME      = TEME
TIME_SYSTEM    = UTC
MEAN_ELEMENT_THEORY = SGP/SGP4

EPOCH          = 2026-03-16T20:08:25.061280
MEAN_MOTION    = 15.10054414
ECCENTRICITY   = .0009648
INCLINATION    = 30.9999
RA_OF_ASC_NODE = 310.4099
ARG_OF_PERICENTER = 42.6083
MEAN_ANOMALY   = 317.5302

EPHEMERIS_TYPE = 0
CLASSIFICATION_TYPE = U
NORAD_CAT_ID   = 41337
ELEMENT_SET_NO = 999
REV_AT_EPOCH   = 55331
BSTAR          = .16027E-3
MEAN_MOTION_DOT = .2769E-4
MEAN_MOTION_DDOT = 0

CCSDS_OMM_VERS = 2.0
CREATION_DATE  = 
ORIGINATOR     = 

OBJECT_NAME    = HXMT (HUIYAN)
OBJECT_ID      = 2017-034A
CENTER_NAME    = EARTH
REF_FRAME      = TEME
TIME_SYSTEM    = UTC
MEAN_ELEMENT_THEORY = SGP/SGP4

EPOCH          = 2026-03-16T19:41:22.939296
MEAN_MOTION    = 15.17569885
ECCENTRICITY   = .003321
INCLINATION    = 43.0159
RA_OF_ASC_NODE = 337.0279
ARG_OF_PERICENTER = 279.3097
MEAN_ANOMALY   = 80.3997

EPHEMERIS_TYPE = 0
CLASSIFICATION_TYPE = U
NORAD_CAT_ID   = 42758
ELEMENT_SET_NO = 999
REV_AT_EPOCH   = 48362
BSTAR          = .25047E-3
MEAN_MOTION_DOT = .4954E-4
MEAN_MOTION_DDOT = 0

CCSDS_OMM_VERS = 2.0
CREATION_DATE  = 
ORIGINATOR     = 

OBJECT_NAME    = SAOCOM 1A
OBJECT_ID      = 2018-076A
CENTER_NAME    = EARTH
REF_FRAME      = TEME
TIME_SYSTEM    = UTC
MEAN_ELEMENT_THEORY = SGP/SGP4

EPOCH          = 2026-03-16T20:22:43.627584
MEAN_MOTION    = 14.82148298
ECCENTRICITY   = .0001429
INCLINATION    = 97.8896
RA_OF_ASC_NODE = 263.9207
ARG_OF_PERICENTER = 84.3852
MEAN_ANOMALY   = 275.7524

EPHEMERIS_TYPE = 0
CLASSIFICATION_TYPE = U
NORAD_CAT_ID   = 43641
ELEMENT_SET_NO = 999
REV_AT_EPOCH   = 40242
BSTAR          = .34783E-4
MEAN_MOTION_DOT = .225E-5
MEAN_MOTION_DDOT = 0

CCSDS_OMM_VERS = 2.0
CREATION_DATE  = 
ORIGINATOR     = 

OBJECT_NAME    = H-2A R/B
OBJECT_ID      = 2018-084L
CENTER_NAME    = EARTH
REF_FRAME      = TEME
TIME_SYSTEM    = UTC
MEAN_ELEMENT_THEORY = SGP/SGP4

EPOCH          = 2026-03-16T20:57:18.311040
MEAN_MOTION    = 15.41667803
ECCENTRICITY   = .0024815
INCLINATION    = 98.8725
RA_OF_ASC_NODE = 294.7981
ARG_OF_PERICENTER = 0.7070
MEAN_ANOMALY   = 359.4203

EPHEMERIS_TYPE = 0
CLASSIFICATION_TYPE = U
NORAD_CAT_ID   = 43682
ELEMENT_SET_NO = 999
REV_AT_EPOCH   = 40688
BSTAR          = .38098E-3
MEAN_MOTION_DOT = .16138E-3
MEAN_MOTION_DDOT = 0

CCSDS_OMM_VERS = 2.0
CREATION_DATE  = 
ORIGINATOR     = 

OBJECT_NAME    = SAOCOM 1B
OBJECT_ID      = 2020-059A
CENTER_NAME    = EARTH
REF_FRAME      = TEME
TIME_SYSTEM    = UTC
MEAN_ELEMENT_THEORY = SGP/SGP4

EPOCH          = 2026-03-14T01:04:39.385920
MEAN_MOTION    = 14.82151938
ECCENTRICITY   = .00013837
INCLINATION    = 97.8899
RA_OF_ASC_NODE = 260.2532
ARG_OF_PERICENTER = 84.3427
MEAN_ANOMALY   = 275.7944

EPHEMERIS_TYPE = 0
CLASSIFICATION_TYPE = U
NORAD_CAT_ID   = 46265
ELEMENT_SET_NO = 999
REV_AT_EPOCH   = 29939
BSTAR          = .26755151E-4
MEAN_MOTION_DOT = .161E-5
MEAN_MOTION_DDOT = 0

CCSDS_OMM_VERS = 2.0
CREATION_DATE  = 
ORIGINATOR     = 

OBJECT_NAME    = CSS (TIANHE)
OBJECT_ID      = 2021-035A
CENTER_NAME    = EARTH
REF_FRAME      = TEME
TIME_SYSTEM    = UTC
MEAN_ELEMENT_THEORY = SGP/SGP4

EPOCH          = 2026-03-16T13:29:03.688800
MEAN_MOTION    = 15.61049688
ECCENTRICITY   = .0006265
INCLINATION    = 41.4671
RA_OF_ASC_NODE = 166.3358
ARG_OF_PERICENTER = 313.8090
MEAN_ANOMALY   = 46.2230

EPHEMERIS_TYPE = 0
CLASSIFICATION_TYPE = U
NORAD_CAT_ID   = 48274
ELEMENT_SET_NO = 999
REV_AT_EPOCH   = 27868
BSTAR          = .25302E-3
MEAN_MOTION_DOT = .21647E-3
MEAN_MOTION_DDOT = 0

CCSDS_OMM_VERS = 2.0
CREATION_DATE  = 
ORIGINATOR     = 

OBJECT_NAME    = COSMOS 2550
OBJECT_ID      = 2021-056A
CENTER_NAME    = EARTH
REF_FRAME      = TEME
TIME_SYSTEM    = UTC
MEAN_ELEMENT_THEORY = SGP/SGP4

EPOCH          = 2026-03-16T22:49:21.406944
MEAN_MOTION    = 15.33875817
ECCENTRICITY   = .0008244
INCLINATION    = 67.1424
RA_OF_ASC_NODE = 18.9169
ARG_OF_PERICENTER = 269.0350
MEAN_ANOMALY   = 90.9860

EPHEMERIS_TYPE = 0
CLASSIFICATION_TYPE = U
NORAD_CAT_ID   = 48865
ELEMENT_SET_NO = 999
REV_AT_EPOCH   = 26457
BSTAR          = -.53918E-6
MEAN_MOTION_DOT = -.21E-5
MEAN_MOTION_DDOT = 0

CCSDS_OMM_VERS = 2.0
CREATION_DATE  = 
ORIGINATOR     = 

OBJECT_NAME    = CZ-2C R/B
OBJECT_ID      = 2022-058K
CENTER_NAME    = EARTH
REF_FRAME      = TEME
TIME_SYSTEM    = UTC
MEAN_ELEMENT_THEORY = SGP/SGP4

EPOCH          = 2026-03-16T20:10:05.578176
MEAN_MOTION    = 15.54765876
ECCENTRICITY   = .0041989
INCLINATION    = 50.1879
RA_OF_ASC_NODE = 281.4921
ARG_OF_PERICENTER = 231.3079
MEAN_ANOMALY   = 128.4133

EPHEMERIS_TYPE = 0
CLASSIFICATION_TYPE = U
NORAD_CAT_ID   = 52794
ELEMENT_SET_NO = 999
REV_AT_EPOCH   = 21124
BSTAR          = .4297E-3
MEAN_MOTION_DOT = .29917E-3
MEAN_MOTION_DDOT = 0

CCSDS_OMM_VERS = 2.0
CREATION_DATE  = 
ORIGINATOR     = 

OBJECT_NAME    = CZ-2C R/B
OBJECT_ID      = 2022-132E
CENTER_NAME    = EARTH
REF_FRAME      = TEME
TIME_SYSTEM    = UTC
MEAN_ELEMENT_THEORY = SGP/SGP4

EPOCH          = 2026-03-16T17:42:48.264768
MEAN_MOTION    = 15.62520644
ECCENTRICITY   = .0019979
INCLINATION    = 97.2952
RA_OF_ASC_NODE = 79.2720
ARG_OF_PERICENTER = 69.2344
MEAN_ANOMALY   = 291.1053

EPHEMERIS_TYPE = 0
CLASSIFICATION_TYPE = U
NORAD_CAT_ID   = 54039
ELEMENT_SET_NO = 999
REV_AT_EPOCH   = 19147
BSTAR          = .42388E-3
MEAN_MOTION_DOT = .38086E-3
MEAN_MOTION_DDOT = 0

CCSDS_OMM_VERS = 2.0
CREATION_DATE  = 
ORIGINATOR     = 

OBJECT_NAME    = GSLV R/B
OBJECT_ID      = 2022-138AN
CENTER_NAME    = EARTH
REF_FRAME      = TEME
TIME_SYSTEM    = UTC
MEAN_ELEMENT_THEORY = SGP/SGP4

EPOCH          = 2026-03-16T16:10:05.640096
MEAN_MOTION    = 14.96827402
ECCENTRICITY   = .0023699
INCLINATION    = 87.3885
RA_OF_ASC_NODE = 164.0252
ARG_OF_PERICENTER = 123.4790
MEAN_ANOMALY   = 236.8712

EPHEMERIS_TYPE = 0
CLASSIFICATION_TYPE = U
NORAD_CAT_ID   = 54149
ELEMENT_SET_NO = 999
REV_AT_EPOCH   = 18497
BSTAR          = .20291E-3
MEAN_MOTION_DOT = .2365E-4
MEAN_MOTION_DDOT = 0

